YAOGAN-43 01G           
1 60464U 24148G   26068.44348481  .00010133  00000+0  35873-3 0  9993
2 60464  35.0006  62.0013 0007382 306.3543  53.6492 15.28332833 87004
STARLINK-33697          
1 63467U 25070H   26068.54388355  .00022808  00000+0  83553-3 0  9999
2 63467  42.9966 260.6804 0001003 298.8578  61.2173 15.27589098 52956
